[{"OBJECT_NAME":"ONEWEB-0288","OBJECT_ID":"2021-075D","EPOCH":"2026-03-04T08:16:59.509344","MEAN_MOTION":13.12442488,"ECCENTRICITY":0.00019137,"INCLINATION":87.8995,"RA_OF_ASC_NODE":11.4624,"ARG_OF_PERICENTER":78.4515,"MEAN_ANOMALY":281.6828,"EPHEMERIS_TYPE":0,"CLASSIFICATION_TYPE":"U","NORAD_CAT_ID":49078,"ELEMENT_SET_NO":999,"REV_AT_EPOCH":22143,"BSTAR":-0.0010299324,"MEAN_MOTION_DOT":-3.58e-6,"MEAN_MOTION_DDOT":0},{"OBJECT_NAME":"ONEWEB-0289","OBJECT_ID":"2021-075E","EPOCH":"2026-03-04T08:05:57.173856","MEAN_MOTION":13.17650818,"ECCENTRICITY":0.00022764,"INCLINATION":87.9145,"RA_OF_ASC_NODE":26.6997,"ARG_OF_PERICENTER":85.7829,"MEAN_ANOMALY":274.3563,"EPHEMERIS_TYPE":0,"CLASSIFICATION_TYPE":"U","NORAD_CAT_ID":49079,"ELEMENT_SET_NO":999,"REV_AT_EPOCH":22039,"BSTAR":0.00016538142,"MEAN_MOTION_DOT":7.7e-7,"MEAN_MOTION_DDOT":0},{"OBJECT_NAME":"ONEWEB-0290","OBJECT_ID":"2021-075F","EPOCH":"2026-03-04T09:16:39.445824","MEAN_MOTION":13.1764761,"ECCENTRICITY":0.00023372,"INCLINATION":87.915,"RA_OF_ASC_NODE":26.6577,"ARG_OF_PERICENTER":92.5341,"MEAN_ANOMALY":267.6058,"EPHEMERIS_TYPE":0,"CLASSIFICATION_TYPE":"U","NORAD_CAT_ID":49080,"ELEMENT_SET_NO":999,"REV_AT_EPOCH":21981,"BSTAR":-9.7388383e-5,"MEAN_MOTION_DOT":-2.5e-7,"MEAN_MOTION_DDOT":0},{"OBJECT_NAME":"ONEWEB-0291","OBJECT_ID":"2021-075G","EPOCH":"2026-03-04T10:44:07.572768","MEAN_MOTION":13.17649437,"ECCENTRICITY":0.00021541,"INCLINATION":87.9151,"RA_OF_ASC_NODE":26.654,"ARG_OF_PERICENTER":74.5579,"MEAN_ANOMALY":285.5791,"EPHEMERIS_TYPE":0,"CLASSIFICATION_TYPE":"U","NORAD_CAT_ID":49081,"ELEMENT_SET_NO":999,"REV_AT_EPOCH":21981,"BSTAR":-1.3583307e-5,"MEAN_MOTION_DOT":8.0e-8,"MEAN_MOTION_DDOT":0},{"OBJECT_NAME":"ONEWEB-0293","OBJECT_ID":"2021-075H","EPOCH":"2026-03-04T09:31:13.997856","MEAN_MOTION":13.17649341,"ECCENTRICITY":0.00020085,"INCLINATION":87.914,"RA_OF_ASC_NODE":26.6756,"ARG_OF_PERICENTER":82.6957,"MEAN_ANOMALY":277.4403,"EPHEMERIS_TYPE":0,"CLASSIFICATION_TYPE":"U","NORAD_CAT_ID":49082,"ELEMENT_SET_NO":999,"REV_AT_EPOCH":21983,"BSTAR":-0.00022225415,"MEAN_MOTION_DOT":-7.3e-7,"MEAN_MOTION_DDOT":0},{"OBJECT_NAME":"ONEWEB-0294","OBJECT_ID":"2021-075J","EPOCH":"2026-03-04T08:26:45.004128","MEAN_MOTION":13.12442493,"ECCENTRICITY":0.00021635,"INCLINATION":87.8997,"RA_OF_ASC_NODE":11.4634,"ARG_OF_PERICENTER":84.162,"MEAN_ANOMALY":275.9755,"EPHEMERIS_TYPE":0,"CLASSIFICATION_TYPE":"U","NORAD_CAT_ID":49083,"ELEMENT_SET_NO":999,"REV_AT_EPOCH":22082,"BSTAR":-0.00069995142,"MEAN_MOTION_DOT":-2.39e-6,"MEAN_MOTION_DDOT":0},{"OBJECT_NAME":"ONEWEB-0295","OBJECT_ID":"2021-075K","EPOCH":"2026-03-04T09:30:01.516032","MEAN_MOTION":13.17649305,"ECCENTRICITY":0.0002081,"INCLINATION":87.9141,"RA_OF_ASC_NODE":26.6804,"ARG_OF_PERICENTER":73.1682,"MEAN_ANOMALY":286.9678,"EPHEMERIS_TYPE":0,"CLASSIFICATION_TYPE":"U","NORAD_CAT_ID":49084,"ELEMENT_SET_NO":999,"REV_AT_EPOCH":21979,"BSTAR":2.0105141e-5,"MEAN_MOTION_DOT":2.1e-7,"MEAN_MOTION_DDOT":0},{"OBJECT_NAME":"ONEWEB-0296","OBJECT_ID":"2021-075L","EPOCH":"2026-03-04T18:56:09.835008","MEAN_MOTION":13.12441258,"ECCENTRICITY":0.0002073,"INCLINATION":87.9002,"RA_OF_ASC_NODE":11.38,"ARG_OF_PERICENTER":72.3371,"MEAN_ANOMALY":287.7984,"EPHEMERIS_TYPE":0,"CLASSIFICATION_TYPE":"U","NORAD_CAT_ID":49085,"ELEMENT_SET_NO":999,"REV_AT_EPOCH":22088,"BSTAR":-0.00064616,"MEAN_MOTION_DOT":-2.2e-6,"MEAN_MOTION_DDOT":0},{"OBJECT_NAME":"ONEWEB-0297","OBJECT_ID":"2021-075M","EPOCH":"2026-03-04T19:40:05.149920","MEAN_MOTION":13.12442153,"ECCENTRICITY":0.0001833,"INCLINATION":87.8988,"RA_OF_ASC_NODE":11.3996,"ARG_OF_PERICENTER":76.4072,"MEAN_ANOMALY":283.7261,"EPHEMERIS_TYPE":0,"CLASSIFICATION_TYPE":"U","NORAD_CAT_ID":49086,"ELEMENT_SET_NO":999,"REV_AT_EPOCH":22149,"BSTAR":4.9327e-5,"MEAN_MOTION_DOT":3.0e-7,"MEAN_MOTION_DDOT":0},{"OBJECT_NAME":"ONEWEB-0298","OBJECT_ID":"2021-075N","EPOCH":"2026-03-04T09:36:16.710624","MEAN_MOTION":13.17650181,"ECCENTRICITY":0.00017138,"INCLINATION":87.914,"RA_OF_ASC_NODE":26.6764,"ARG_OF_PERICENTER":79.4194,"MEAN_ANOMALY":280.7131,"EPHEMERIS_TYPE":0,"CLASSIFICATION_TYPE":"U","NORAD_CAT_ID":49087,"ELEMENT_SET_NO":999,"REV_AT_EPOCH":21982,"BSTAR":0.00011613282,"MEAN_MOTION_DOT":5.8e-7,"MEAN_MOTION_DDOT":0},{"OBJECT_NAME":"ONEWEB-0299","OBJECT_ID":"2021-075P","EPOCH":"2026-03-04T09:38:30.240096","MEAN_MOTION":13.17649798,"ECCENTRICITY":0.00018914,"INCLINATION":87.9154,"RA_OF_ASC_NODE":26.646,"ARG_OF_PERICENTER":75.7699,"MEAN_ANOMALY":284.3642,"EPHEMERIS_TYPE":0,"CLASSIFICATION_TYPE":"U","NORAD_CAT_ID":49088,"ELEMENT_SET_NO":999,"REV_AT_EPOCH":21980,"BSTAR":-2.2772424e-5,"MEAN_MOTION_DOT":4.0e-8,"MEAN_MOTION_DDOT":0},{"OBJECT_NAME":"ONEWEB-0300","OBJECT_ID":"2021-075Q","EPOCH":"2026-03-04T19:29:06.240192","MEAN_MOTION":13.12443582,"ECCENTRICITY":0.0001438,"INCLINATION":87.9,"RA_OF_ASC_NODE":11.3685,"ARG_OF_PERICENTER":77.7744,"MEAN_ANOMALY":282.3545,"EPHEMERIS_TYPE":0,"CLASSIFICATION_TYPE":"U","NORAD_CAT_ID":49089,"ELEMENT_SET_NO":999,"REV_AT_EPOCH":22151,"BSTAR":-0.0007015,"MEAN_MOTION_DOT":-2.4e-6,"MEAN_MOTION_DDOT":0},{"OBJECT_NAME":"ONEWEB-0301","OBJECT_ID":"2021-075R","EPOCH":"2026-03-04T08:07:12.855072","MEAN_MOTION":13.1244396,"ECCENTRICITY":0.00014244,"INCLINATION":87.8997,"RA_OF_ASC_NODE":11.463,"ARG_OF_PERICENTER":82.2348,"MEAN_ANOMALY":277.8942,"EPHEMERIS_TYPE":0,"CLASSIFICATION_TYPE":"U","NORAD_CAT_ID":49090,"ELEMENT_SET_NO":999,"REV_AT_EPOCH":22081,"BSTAR":-0.0011982362,"MEAN_MOTION_DOT":-4.18e-6,"MEAN_MOTION_DDOT":0},{"OBJECT_NAME":"ONEWEB-0302","OBJECT_ID":"2021-075S","EPOCH":"2026-03-04T18:46:24.651264","MEAN_MOTION":13.12441418,"ECCENTRICITY":0.0002142,"INCLINATION":87.9003,"RA_OF_ASC_NODE":11.3834,"ARG_OF_PERICENTER":78.9643,"MEAN_ANOMALY":281.1727,"EPHEMERIS_TYPE":0,"CLASSIFICATION_TYPE":"U","NORAD_CAT_ID":49091,"ELEMENT_SET_NO":999,"REV_AT_EPOCH":22085,"BSTAR":-7.8541e-5,"MEAN_MOTION_DOT":-1.6e-7,"MEAN_MOTION_DDOT":0},{"OBJECT_NAME":"ONEWEB-0304","OBJECT_ID":"2021-075T","EPOCH":"2026-03-04T10:51:25.758144","MEAN_MOTION":13.17648184,"ECCENTRICITY":0.00019242,"INCLINATION":87.9151,"RA_OF_ASC_NODE":26.6662,"ARG_OF_PERICENTER":77.5741,"MEAN_ANOMALY":282.5606,"EPHEMERIS_TYPE":0,"CLASSIFICATION_TYPE":"U","NORAD_CAT_ID":49092,"ELEMENT_SET_NO":999,"REV_AT_EPOCH":21978,"BSTAR":3.808324e-5,"MEAN_MOTION_DOT":2.8e-7,"MEAN_MOTION_DDOT":0},{"OBJECT_NAME":"ONEWEB-0305","OBJECT_ID":"2021-075U","EPOCH":"2026-03-04T19:48:26.834976","MEAN_MOTION":13.17648771,"ECCENTRICITY":0.0001955,"INCLINATION":87.915,"RA_OF_ASC_NODE":26.5708,"ARG_OF_PERICENTER":69.8079,"MEAN_ANOMALY":290.3262,"EPHEMERIS_TYPE":0,"CLASSIFICATION_TYPE":"U","NORAD_CAT_ID":49093,"ELEMENT_SET_NO":999,"REV_AT_EPOCH":21986,"BSTAR":2.7529e-5,"MEAN_MOTION_DOT":2.4e-7,"MEAN_MOTION_DDOT":0},{"OBJECT_NAME":"ONEWEB-0308","OBJECT_ID":"2021-075V","EPOCH":"2026-03-04T18:36:38.973312","MEAN_MOTION":13.12440839,"ECCENTRICITY":0.0001827,"INCLINATION":87.9,"RA_OF_ASC_NODE":11.3779,"ARG_OF_PERICENTER":78.9879,"MEAN_ANOMALY":281.1455,"EPHEMERIS_TYPE":0,"CLASSIFICATION_TYPE":"U","NORAD_CAT_ID":49094,"ELEMENT_SET_NO":999,"REV_AT_EPOCH":22086,"BSTAR":0.00054889,"MEAN_MOTION_DOT":2.1e-6,"MEAN_MOTION_DDOT":0}]
