ONEWEB-0288             
1 49078U 21075D   26063.34513321 -.00000358  00000+0 -10299-2 0  9992
2 49078  87.8995  11.4624 0001913  78.4515 281.6828 13.12442488221432
ONEWEB-0289             
1 49079U 21075E   26063.33746729  .00000077  00000+0  16538-3 0  9991
2 49079  87.9145  26.6997 0002276  85.7829 274.3563 13.17650818220396
ONEWEB-0290             
1 49080U 21075F   26063.38656766 -.00000025  00000+0 -97388-4 0  9997
2 49080  87.9150  26.6577 0002337  92.5341 267.6058 13.17647610219816
ONEWEB-0291             
1 49081U 21075G   26063.44730987  .00000008  00000+0 -13583-4 0  9998
2 49081  87.9151  26.6540 0002154  74.5579 285.5791 13.17649437219810
ONEWEB-0293             
1 49082U 21075H   26063.39668979 -.00000073  00000+0 -22225-3 0  9999
2 49082  87.9140  26.6756 0002008  82.6957 277.4403 13.17649341219832
ONEWEB-0294             
1 49083U 21075J   26063.35190977 -.00000239  00000+0 -69995-3 0  9993
2 49083  87.8997  11.4634 0002163  84.1620 275.9755 13.12442493220823
ONEWEB-0295             
1 49084U 21075K   26063.39585088  .00000021  00000+0  20105-4 0  9997
2 49084  87.9141  26.6804 0002081  73.1682 286.9678 13.17649305219794
ONEWEB-0296             
1 49085U 21075L   26063.78900272 -.00000220  00000+0 -64616-3 0  9994
2 49085  87.9002  11.3800 0002073  72.3371 287.7984 13.12441258220888
ONEWEB-0297             
1 49086U 21075M   26063.81950405  .00000030  00000+0  49327-4 0  9992
2 49086  87.8988  11.3996 0001833  76.4072 283.7261 13.12442153221490
ONEWEB-0298             
1 49087U 21075N   26063.40019341  .00000058  00000+0  11613-3 0  9999
2 49087  87.9140  26.6764 0001713  79.4194 280.7131 13.17650181219823
ONEWEB-0299             
1 49088U 21075P   26063.40173889  .00000004  00000+0 -22772-4 0  9999
2 49088  87.9154  26.6460 0001891  75.7699 284.3642 13.17649798219805
ONEWEB-0300             
1 49089U 21075Q   26063.81187778 -.00000240  00000+0 -70150-3 0  9992
2 49089  87.9000  11.3685 0001438  77.7744 282.3545 13.12443582221515
ONEWEB-0301             
1 49090U 21075R   26063.33834323 -.00000418  00000+0 -11982-2 0  9990
2 49090  87.8997  11.4630 0001424  82.2348 277.8942 13.12443960220810
ONEWEB-0302             
1 49091U 21075S   26063.78222976 -.00000016  00000+0 -78541-4 0  9995
2 49091  87.9003  11.3834 0002142  78.9643 281.1727 13.12441418220852
ONEWEB-0304             
1 49092U 21075T   26063.45238146  .00000028  00000+0  38083-4 0  9994
2 49092  87.9151  26.6662 0001924  77.5741 282.5606 13.17648184219781
ONEWEB-0305             
1 49093U 21075U   26063.82531059  .00000024  00000+0  27529-4 0  9994
2 49093  87.9150  26.5708 0001955  69.8079 290.3262 13.17648771219869
ONEWEB-0308             
1 49094U 21075V   26063.77545108  .00000210  00000+0  54889-3 0  9994
2 49094  87.9000  11.3779 0001827  78.9879 281.1455 13.12440839220865
